[{"OBJECT_NAME":"AAC-HSI-SAT2","OBJECT_ID":"2023-084BX","EPOCH":"2026-03-09T22:35:55.269024","MEAN_MOTION":15.19636036,"ECCENTRICITY":0.00130289,"INCLINATION":97.809,"RA_OF_ASC_NODE":215.6104,"ARG_OF_PERICENTER":163.6143,"MEAN_ANOMALY":196.5515,"EPHEMERIS_TYPE":0,"CLASSIFICATION_TYPE":"U","NORAD_CAT_ID":56995,"ELEMENT_SET_NO":999,"REV_AT_EPOCH":15126,"BSTAR":0.00025757454,"MEAN_MOTION_DOT":5.427e-5,"MEAN_MOTION_DDOT":0},{"OBJECT_NAME":"TIANYI C","OBJECT_ID":"2025-103C","EPOCH":"2026-03-09T22:37:19.466688","MEAN_MOTION":15.19353753,"ECCENTRICITY":0.00043402,"INCLINATION":97.3825,"RA_OF_ASC_NODE":142.8102,"ARG_OF_PERICENTER":135.1968,"MEAN_ANOMALY":224.9618,"EPHEMERIS_TYPE":0,"CLASSIFICATION_TYPE":"U","NORAD_CAT_ID":64050,"ELEMENT_SET_NO":999,"REV_AT_EPOCH":4499,"BSTAR":0.00019408106,"MEAN_MOTION_DOT":4.036e-5,"MEAN_MOTION_DDOT":0}]
